{"type": "FeatureCollection", "features": [ {"type": "Feature", "properties": {"norad_id": 60989, "name": "SENTINEL-2C", "group": "resource", "lat": 69.31713560335909, "lon": -83.02801876923547, "alt_km": 781.2641769057773, "timestamp": "2025-12-27T03:58:43.835968+00:00", "meta": {"OBJECT_NAME": "SENTINEL-2C", "OBJECT_ID": "2024-157A", "EPOCH": "2025-12-26T03:58:31.725408", "MEAN_MOTION": 14.30818046, "ECCENTRICITY": 0.00013866, "INCLINATION": 98.5666, "RA_OF_ASC_NODE": 72.4538, "ARG_OF_PERICENTER": 102.8528, "MEAN_ANOMALY": 257.2809, "EPHEMERIS_TYPE": 0, "CLASSIFICATION_TYPE": "U", "NORAD_CAT_ID": 60989, "ELEMENT_SET_NO": 999, "REV_AT_EPOCH": 6824, "BSTAR": 0.0001005445, "MEAN_MOTION_DOT": 2.2e-06, "MEAN_MOTION_DDOT": 0}, "tle": {"line1": "1 60989U 24157A   25360.16564497  .00000220  00000+0  10054-3 0  9995", "line2": "2 60989  98.5666  72.4538 0001386 102.8528 257.2809 14.30818046 68245"}}, "geometry": {"type": "Point", "coordinates": [-83.02801876923547, 69.31713560335909]}}, {"type": "Feature", "properties": {"norad_id": 61735, "name": "IONOSFERA-M 1", "group": "resource", "lat": -44.24376686854919, "lon": -120.48126334228307, "alt_km": 822.700781039056, "timestamp": "2025-12-27T03:58:43.835979+00:00", "meta": {"OBJECT_NAME": "IONOSFERA-M 1", "OBJECT_ID": "2024-199A", "EPOCH": "2025-12-26T21:26:16.931328", "MEAN_MOTION": 14.22717152, "ECCENTRICITY": 2.56e-05, "INCLINATION": 98.7395, "RA_OF_ASC_NODE": 230.6321, "ARG_OF_PERICENTER": 1.7716, "MEAN_ANOMALY": 358.3462, "EPHEMERIS_TYPE": 0, "CLASSIFICATION_TYPE": "U", "NORAD_CAT_ID": 61735, "ELEMENT_SET_NO": 999, "REV_AT_EPOCH": 10320, "BSTAR": 4.5913e-05, "MEAN_MOTION_DOT": 5.9e-07, "MEAN_MOTION_DDOT": 0}, "tle": {"line1": "1 61735U 24199A   25360.89325152  .00000059  00000+0  45913-4 0  9997", "line2": "2 61735  98.7395 230.6321 0000256   1.7716 358.3462 14.22717152103206"}}, "geometry": {"type": "Point", "coordinates": [-120.48126334228307, -44.24376686854919]}}, {"type": "Feature", "properties": {"norad_id": 61736, "name": "IONOSFERA-M 2", "group": "resource", "lat": 41.34338917775886, "lon": 58.59329991095843, "alt_km": 811.8839552547815, "timestamp": "2025-12-27T03:58:43.835989+00:00", "meta": {"OBJECT_NAME": "IONOSFERA-M 2", "OBJECT_ID": "2024-199B", "EPOCH": "2025-12-26T20:34:52.321728", "MEAN_MOTION": 14.22719317, "ECCENTRICITY": 0.0001875, "INCLINATION": 98.7394, "RA_OF_ASC_NODE": 230.5091, "ARG_OF_PERICENTER": 92.3731, "MEAN_ANOMALY": 267.7662, "EPHEMERIS_TYPE": 0, "CLASSIFICATION_TYPE": "U", "NORAD_CAT_ID": 61736, "ELEMENT_SET_NO": 999, "REV_AT_EPOCH": 10632, "BSTAR": 4.9561e-05, "MEAN_MOTION_DOT": 6.7e-07, "MEAN_MOTION_DDOT": 0}, "tle": {"line1": "1 61736U 24199B   25360.85755002  .00000067  00000+0  49561-4 0  9997", "line2": "2 61736  98.7394 230.5091 0001875  92.3731 267.7662 14.22719317106326"}}, "geometry": {"type": "Point", "coordinates": [58.59329991095843, 41.34338917775886]}}, {"type": "Feature", "properties": {"norad_id": 63772, "name": "BIOMASS", "group": "resource", "lat": 45.457404013998755, "lon": 14.253603943585501, "alt_km": 664.5192737937805, "timestamp": "2025-12-27T03:58:43.835998+00:00", "meta": {"OBJECT_NAME": "BIOMASS", "OBJECT_ID": "2025-090A", "EPOCH": "2025-12-26T12:38:37.094208", "MEAN_MOTION": 14.67541844, "ECCENTRICITY": 0.0001081, "INCLINATION": 98.0698, "RA_OF_ASC_NODE": 185.3355, "ARG_OF_PERICENTER": 85.3818, "MEAN_ANOMALY": 274.751, "EPHEMERIS_TYPE": 0, "CLASSIFICATION_TYPE": "U", "NORAD_CAT_ID": 63772, "ELEMENT_SET_NO": 999, "REV_AT_EPOCH": 3536, "BSTAR": 0.00022694, "MEAN_MOTION_DOT": 1.239e-05, "MEAN_MOTION_DDOT": 0}, "tle": {"line1": "1 63772U 25090A   25360.52681822  .00001239  00000+0  22694-3 0  9991", "line2": "2 63772  98.0698 185.3355 0001081  85.3818 274.7510 14.67541844 35367"}}, "geometry": {"type": "Point", "coordinates": [14.253603943585501, 45.457404013998755]}}, {"type": "Feature", "properties": {"norad_id": 64694, "name": "GOSAT-GW (IBUKI GW)", "group": "resource", "lat": -15.300772448282231, "lon": -61.36449451850813, "alt_km": 673.7218266824757, "timestamp": "2025-12-27T03:58:43.836008+00:00", "meta": {"OBJECT_NAME": "GOSAT-GW (IBUKI GW)", "OBJECT_ID": "2025-141A", "EPOCH": "2025-12-26T19:52:02.578368", "MEAN_MOTION": 14.67563742, "ECCENTRICITY": 0.0001423, "INCLINATION": 98.0441, "RA_OF_ASC_NODE": 296.0863, "ARG_OF_PERICENTER": 82.0688, "MEAN_ANOMALY": 278.0678, "EPHEMERIS_TYPE": 0, "CLASSIFICATION_TYPE": "U", "NORAD_CAT_ID": 64694, "ELEMENT_SET_NO": 999, "REV_AT_EPOCH": 2656, "BSTAR": 0.00020393, "MEAN_MOTION_DOT": 1.109e-05, "MEAN_MOTION_DDOT": 0}, "tle": {"line1": "1 64694U 25141A   25360.82780762  .00001109  00000+0  20393-3 0  9998", "line2": "2 64694  98.0441 296.0863 0001423  82.0688 278.0678 14.67563742 26565"}}, "geometry": {"type": "Point", "coordinates": [-61.36449451850813, -15.300772448282231]}}, {"type": "Feature", "properties": {"norad_id": 64876, "name": "IONOSFERA-M 3", "group": "resource", "lat": 62.751031478558275, "lon": 159.67191696341177, "alt_km": 814.1030478776747, "timestamp": "2025-12-27T03:58:43.836017+00:00", "meta": {"OBJECT_NAME": "IONOSFERA-M 3", "OBJECT_ID": "2025-155A", "EPOCH": "2025-12-26T20:40:41.085696", "MEAN_MOTION": 14.21444489, "ECCENTRICITY": 0.0001775, "INCLINATION": 98.5802, "RA_OF_ASC_NODE": 322.3293, "ARG_OF_PERICENTER": 36.8839, "MEAN_ANOMALY": 323.2461, "EPHEMERIS_TYPE": 0, "CLASSIFICATION_TYPE": "U", "NORAD_CAT_ID": 64876, "ELEMENT_SET_NO": 999, "REV_AT_EPOCH": 2192, "BSTAR": 6.6863e-05, "MEAN_MOTION_DOT": 1.03e-06, "MEAN_MOTION_DDOT": 0}, "tle": {"line1": "1 64876U 25155A   25360.86158664  .00000103  00000+0  66863-4 0  9995", "line2": "2 64876  98.5802 322.3293 0001775  36.8839 323.2461 14.21444489 21922"}}, "geometry": {"type": "Point", "coordinates": [159.67191696341177, 62.751031478558275]}}, {"type": "Feature", "properties": {"norad_id": 64877, "name": "IONOSFERA-M 4", "group": "resource", "lat": -62.20343985157622, "lon": -20.813311281311705, "alt_km": 827.9681519940332, "timestamp": "2025-12-27T03:58:43.836026+00:00", "meta": {"OBJECT_NAME": "IONOSFERA-M 4", "OBJECT_ID": "2025-155B", "EPOCH": "2025-12-26T21:31:09.872256", "MEAN_MOTION": 14.21445668, "ECCENTRICITY": 0.0001228, "INCLINATION": 98.5802, "RA_OF_ASC_NODE": 322.2827, "ARG_OF_PERICENTER": 50.6464, "MEAN_ANOMALY": 309.4822, "EPHEMERIS_TYPE": 0, "CLASSIFICATION_TYPE": "U", "NORAD_CAT_ID": 64877, "ELEMENT_SET_NO": 999, "REV_AT_EPOCH": 2192, "BSTAR": 6.7043e-05, "MEAN_MOTION_DOT": 1.04e-06, "MEAN_MOTION_DDOT": 0}, "tle": {"line1": "1 64877U 25155B   25360.89664204  .00000104  00000+0  67043-4 0  9993", "line2": "2 64877  98.5802 322.2827 0001228  50.6464 309.4822 14.21445668 21923"}}, "geometry": {"type": "Point", "coordinates": [-20.813311281311705, -62.20343985157622]}}, {"type": "Feature", "properties": {"norad_id": 64899, "name": "MICROCARB", "group": "resource", "lat": -16.19199644251367, "lon": -106.06182009284346, "alt_km": 660.2828531781752, "timestamp": "2025-12-27T03:58:43.836035+00:00", "meta": {"OBJECT_NAME": "MICROCARB", "OBJECT_ID": "2025-156A", "EPOCH": "2025-12-26T18:56:07.116864", "MEAN_MOTION": 14.72079618, "ECCENTRICITY": 0.0017671, "INCLINATION": 98.0009, "RA_OF_ASC_NODE": 75.9082, "ARG_OF_PERICENTER": 102.7398, "MEAN_ANOMALY": 257.5786, "EPHEMERIS_TYPE": 0, "CLASSIFICATION_TYPE": "U", "NORAD_CAT_ID": 64899, "ELEMENT_SET_NO": 999, "REV_AT_EPOCH": 2260, "BSTAR": 0.00013152, "MEAN_MOTION_DOT": 7.79e-06, "MEAN_MOTION_DDOT": 0}, "tle": {"line1": "1 64899U 25156A   25360.78897126  .00000779  00000+0  13152-3 0  9996", "line2": "2 64899  98.0009  75.9082 0017671 102.7398 257.5786 14.72079618 22602"}}, "geometry": {"type": "Point", "coordinates": [-106.06182009284346, -16.19199644251367]}}, {"type": "Feature", "properties": {"norad_id": 64900, "name": "CO3D 3", "group": "resource", "lat": -32.7736788547288, "lon": -107.49566854635457, "alt_km": 512.2133760808147, "timestamp": "2025-12-27T03:58:43.836045+00:00", "meta": {"OBJECT_NAME": "CO3D 3", "OBJECT_ID": "2025-156B", "EPOCH": "2025-12-26T20:43:33.409632", "MEAN_MOTION": 15.20209921, "ECCENTRICITY": 0.0001347, "INCLINATION": 97.4343, "RA_OF_ASC_NODE": 77.0288, "ARG_OF_PERICENTER": 64.1389, "MEAN_ANOMALY": 295.9985, "EPHEMERIS_TYPE": 0, "CLASSIFICATION_TYPE": "U", "NORAD_CAT_ID": 64900, "ELEMENT_SET_NO": 999, "REV_AT_EPOCH": 2335, "BSTAR": 1.9785e-05, "MEAN_MOTION_DOT": 3.61e-06, "MEAN_MOTION_DDOT": 0}, "tle": {"line1": "1 64900U 25156B   25360.86358113  .00000361  00000+0  19785-4 0  9992", "line2": "2 64900  97.4343  77.0288 0001347  64.1389 295.9985 15.20209921 23350"}}, "geometry": {"type": "Point", "coordinates": [-107.49566854635457, -32.7736788547288]}}, {"type": "Feature", "properties": {"norad_id": 64901, "name": "CO3D 4", "group": "resource", "lat": -31.913069995106408, "lon": -107.3379851300539, "alt_km": 510.9627130732106, "timestamp": "2025-12-27T03:58:43.836055+00:00", "meta": {"OBJECT_NAME": "CO3D 4", "OBJECT_ID": "2025-156C", "EPOCH": "2025-12-26T20:43:47.134272", "MEAN_MOTION": 15.2020323, "ECCENTRICITY": 0.0001432, "INCLINATION": 97.4337, "RA_OF_ASC_NODE": 77.0283, "ARG_OF_PERICENTER": 147.4281, "MEAN_ANOMALY": 212.7043, "EPHEMERIS_TYPE": 0, "CLASSIFICATION_TYPE": "U", "NORAD_CAT_ID": 64901, "ELEMENT_SET_NO": 999, "REV_AT_EPOCH": 2335, "BSTAR": 0.00029792, "MEAN_MOTION_DOT": 6.387e-05, "MEAN_MOTION_DDOT": 0}, "tle": {"line1": "1 64901U 25156C   25360.86373998  .00006387  00000+0  29792-3 0  9993", "line2": "2 64901  97.4337  77.0283 0001432 147.4281 212.7043 15.20203230 23359"}}, "geometry": {"type": "Point", "coordinates": [-107.3379851300539, -31.913069995106408]}}]}